{
  "norad_id": 61948,
  "name": "STARLINK-11414 [DTC]",
  "history": [
    {
      "epoch": "2026-03-28T19:29:54.885120",
      "apogee_km": 360.2740899345308,
      "perigee_km": 358.8509530416013,
      "latitude_deg": -12.367543585476914,
      "longitude_deg": 92.79431679984555,
      "semi_major_axis_km": 6737.699521488065,
      "eccentricity": 0.00010561,
      "inclination_deg": 53.1576,
      "raan_deg": 276.8212,
      "arg_perigee_deg": 103.7048,
      "mean_anomaly_deg": 256.4087,
      "mean_motion_rev_day": 15.69767392
    }
  ]
}